{
  "links" : {
    "next" : "https://api.nasa.gov/neo/rest/v1/feed?start_date=2007-08-16&end_date=2007-08-16&detailed=true&api_key=t0TVs3DtDT2H8Oy2Zy8m2eVrNsAVKAexjcZXUckd",
    "prev" : "https://api.nasa.gov/neo/rest/v1/feed?start_date=2007-08-14&end_date=2007-08-14&detailed=true&api_key=t0TVs3DtDT2H8Oy2Zy8m2eVrNsAVKAexjcZXUckd",
    "self" : "https://api.nasa.gov/neo/rest/v1/feed?start_date=2007-08-15&end_date=2007-08-15&detailed=true&api_key=t0TVs3DtDT2H8Oy2Zy8m2eVrNsAVKAexjcZXUckd"
  },
  "element_count" : 2,
  "near_earth_objects" : {
    "2007-08-15" : [ {
      "links" : {
        "self" : "https://api.nasa.gov/neo/rest/v1/neo/3368738?api_key=t0TVs3DtDT2H8Oy2Zy8m2eVrNsAVKAexjcZXUckd"
      },
      "neo_reference_id" : "3368738",
      "name" : "(2007 DK8)",
      "nasa_jpl_url" : "http://ssd.jpl.nasa.gov/sbdb.cgi?sstr=3368738",
      "absolute_magnitude_h" : 19.0,
      "estimated_diameter" : {
        "kilometers" : {
          "estimated_diameter_min" : 0.4212646106,
          "estimated_diameter_max" : 0.9419763057
        },
        "meters" : {
          "estimated_diameter_min" : 421.2646105562,
          "estimated_diameter_max" : 941.9763057186
        },
        "miles" : {
          "estimated_diameter_min" : 0.2617616123,
          "estimated_diameter_max" : 0.5853167591
        },
        "feet" : {
          "estimated_diameter_min" : 1382.1017848971,
          "estimated_diameter_max" : 3090.4735428537
        }
      },
      "is_potentially_hazardous_asteroid" : false,
      "close_approach_data" : [ {
        "close_approach_date" : "2007-08-15",
        "epoch_date_close_approach" : 1187161200000,
        "relative_velocity" : {
          "kilometers_per_second" : "16.9611321997",
          "kilometers_per_hour" : "61060.0759189841",
          "miles_per_hour" : "37940.3566175487"
        },
        "miss_distance" : {
          "astronomical" : "0.2943090792",
          "lunar" : "114.4862289429",
          "kilometers" : "44028012",
          "miles" : "27357738"
        },
        "orbiting_body" : "Earth"
      } ],
      "orbital_data" : {
        "orbit_id" : "48",
        "orbit_determination_date" : "2017-04-06 09:06:57",
        "orbit_uncertainty" : "1",
        "minimum_orbit_intersection" : ".20947",
        "jupiter_tisserand_invariant" : "4.015",
        "epoch_osculation" : "2458000.5",
        "eccentricity" : ".419204973954198",
        "semi_major_axis" : "1.649810397761378",
        "inclination" : "32.57862328963683",
        "ascending_node_longitude" : "155.1178697667603",
        "orbital_period" : "774.0151858308975",
        "perihelion_distance" : ".9582016729384542",
        "perihelion_argument" : "99.02645729117737",
        "aphelion_distance" : "2.341419122584301",
        "perihelion_time" : "2458124.549498253231",
        "mean_anomaly" : "302.303690949909",
        "mean_motion" : ".4651071536969182",
        "equinox" : "J2000"
      }
    }, {
      "links" : {
        "self" : "https://api.nasa.gov/neo/rest/v1/neo/3551325?api_key=t0TVs3DtDT2H8Oy2Zy8m2eVrNsAVKAexjcZXUckd"
      },
      "neo_reference_id" : "3551325",
      "name" : "(2010 VU98)",
      "nasa_jpl_url" : "http://ssd.jpl.nasa.gov/sbdb.cgi?sstr=3551325",
      "absolute_magnitude_h" : 24.8,
      "estimated_diameter" : {
        "kilometers" : {
          "estimated_diameter_min" : 0.0291443905,
          "estimated_diameter_max" : 0.0651688382
        },
        "meters" : {
          "estimated_diameter_min" : 29.1443904535,
          "estimated_diameter_max" : 65.1688382168
        },
        "miles" : {
          "estimated_diameter_min" : 0.018109479,
          "estimated_diameter_max" : 0.0404940262
        },
        "feet" : {
          "estimated_diameter_min" : 95.6180819754,
          "estimated_diameter_max" : 213.8085311752
        }
      },
      "is_potentially_hazardous_asteroid" : false,
      "close_approach_data" : [ {
        "close_approach_date" : "2007-08-15",
        "epoch_date_close_approach" : 1187161200000,
        "relative_velocity" : {
          "kilometers_per_second" : "8.6266229516",
          "kilometers_per_hour" : "31055.8426259099",
          "miles_per_hour" : "19296.8928805272"
        },
        "miss_distance" : {
          "astronomical" : "0.2755103255",
          "lunar" : "107.1735076904",
          "kilometers" : "41215756",
          "miles" : "25610284"
        },
        "orbiting_body" : "Earth"
      } ],
      "orbital_data" : {
        "orbit_id" : "9",
        "orbit_determination_date" : "2017-04-06 08:55:46",
        "orbit_uncertainty" : "7",
        "minimum_orbit_intersection" : ".0291821",
        "jupiter_tisserand_invariant" : "5.990",
        "epoch_osculation" : "2458000.5",
        "eccentricity" : ".2668219762943289",
        "semi_major_axis" : "1.011020342800183",
        "inclination" : "6.970202977215189",
        "ascending_node_longitude" : "229.388385276409",
        "orbital_period" : "371.3113871315556",
        "perihelion_distance" : ".7412578968604686",
        "perihelion_argument" : "63.15809176266788",
        "aphelion_distance" : "1.280782788739898",
        "perihelion_time" : "2458019.242344672001",
        "mean_anomaly" : "341.8286098521137",
        "mean_motion" : ".9695366543457284",
        "equinox" : "J2000"
      }
    } ]
  }
}